TOMORROW-S1             
1 60479U 24149M   26068.72470524  .00008620  00000+0  28856-3 0  9996
2 60479  97.3791 149.6044 0001819 207.2040 152.9106 15.31198362 86867
STARLINK-33787          
1 63519U 25071AC  26068.46548510  .00025900  00000+0  88384-3 0  9993
2 63519  53.1596 143.1949 0001252  63.8364 296.2765 15.30188521 52330
